start=new Date('2022-11-11T00:00:00.000Z').valueOf();
sats=[{"TLE_LINE2":"2 52307  53.2170 152.9349 0002030  46.8075 313.3086 15.08834239 31107","SEMIMAJOR_AXIS":"6917.898","INCLINATION":"53.2170","CENTER_NAME":"EARTH","NORAD_CAT_ID":"52307","TLE_LINE1":"1 52307U 22041AY  22314.81104704 -.00000125  00000-0  10252-4 0  9996","EPHEMERIS_TYPE":"0","MEAN_ANOMALY":"313.3086","PERIOD":"95.438","EPOCH":"2022-11-10T19:27:54.464256","MEAN_ELEMENT_THEORY":"SGP4","REF_FRAME":"TEME","RA_OF_ASC_NODE":"152.9349","PERIAPSIS":"538.359","TIME_SYSTEM":"UTC","ELEMENT_SET_NO":"999","DECAY_DATE":null,"MEAN_MOTION":"15.08834239","APOAPSIS":"541.167","ECCENTRICITY":"0.00020300","COUNTRY_CODE":"US","ARG_OF_PERICENTER":"46.8075","REV_AT_EPOCH":"3110","CLASSIFICATION_TYPE":"U","BSTAR":"0.00001025200000","OBJECT_TYPE":"PAYLOAD","FILE":"3650843","SITE":"AFETR","RCS_SIZE":"LARGE","LAUNCH_DATE":"2022-04-21","OBJECT_NAME":"STARLINK-3755","OBJECT_ID":"2022-041AY","GP_ID":"217372091","MEAN_MOTION_DDOT":"0.0000000000000","MEAN_MOTION_DOT":"-0.00000125"},{"MEAN_ANOMALY":"304.4406","PERIOD":"95.437","MEAN_ELEMENT_THEORY":"SGP4","REF_FRAME":"TEME","EPOCH":"2022-11-10T18:57:27.226080","TLE_LINE2":"2 52308  53.2176 143.0098 0001903  55.6766 304.4406 15.08843115 32458","EPHEMERIS_TYPE":"0","INCLINATION":"53.2176","SEMIMAJOR_AXIS":"6917.871","CENTER_NAME":"EARTH","NORAD_CAT_ID":"52308","TLE_LINE1":"1 52308U 22041AZ  22314.78989845 -.00002118  00000-0 -11498-3 0  9997","TIME_SYSTEM":"UTC","ELEMENT_SET_NO":"999","PERIAPSIS":"538.419","DECAY_DATE":null,"RA_OF_ASC_NODE":"143.0098","APOAPSIS":"541.052","ECCENTRICITY":"0.00019030","COUNTRY_CODE":"US","ARG_OF_PERICENTER":"55.6766","MEAN_MOTION":"15.08843115","RCS_SIZE":"LARGE","SITE":"AFETR","MEAN_MOTION_DOT":"-0.00002118","GP_ID":"217371833","MEAN_MOTION_DDOT":"0.0000000000000","OBJECT_ID":"2022-041AZ","LAUNCH_DATE":"2022-04-21","OBJECT_NAME":"STARLINK-3745","REV_AT_EPOCH":"3245","CLASSIFICATION_TYPE":"U","FILE":"3650843","BSTAR":"-0.00011498000000","OBJECT_TYPE":"PAYLOAD"},{"REV_AT_EPOCH":"3245","CLASSIFICATION_TYPE":"U","BSTAR":"0.00045171000000","OBJECT_TYPE":"PAYLOAD","FILE":"3650843","SITE":"AFETR","RCS_SIZE":"LARGE","LAUNCH_DATE":"2022-04-21","OBJECT_NAME":"STARLINK-3756","MEAN_MOTION_DDOT":"0.0000000000000","GP_ID":"217370595","MEAN_MOTION_DOT":"0.00006908","OBJECT_ID":"2022-041BA","MEAN_MOTION":"15.08841226","APOAPSIS":"540.980","ECCENTRICITY":"0.00017900","COUNTRY_CODE":"US","ARG_OF_PERICENTER":"42.1835","RA_OF_ASC_NODE":"143.0040","PERIAPSIS":"538.503","TIME_SYSTEM":"UTC","ELEMENT_SET_NO":"999","DECAY_DATE":null,"TLE_LINE2":"2 52309  53.2152 143.0040 0001790  42.1835 317.9294 15.08841226 32457","SEMIMAJOR_AXIS":"6917.877","INCLINATION":"53.2152","CENTER_NAME":"EARTH","NORAD_CAT_ID":"52309","TLE_LINE1":"1 52309U 22041BA  22314.79356700  .00006908  00000-0  45171-3 0  9991","EPHEMERIS_TYPE":"0","MEAN_ANOMALY":"317.9294","REF_FRAME":"TEME","PERIOD":"95.437","MEAN_ELEMENT_THEORY":"SGP4","EPOCH":"2022-11-10T19:02:44.188800"},{"RA_OF_ASC_NODE":"142.7545","DECAY_DATE":null,"PERIAPSIS":"538.387","TIME_SYSTEM":"UTC","ELEMENT_SET_NO":"999","INCLINATION":"53.2173","SEMIMAJOR_AXIS":"6917.842","CENTER_NAME":"EARTH","NORAD_CAT_ID":"52310","TLE_LINE1":"1 52310U 22041BB  22314.84972815 -.00001075  00000-0 -49431-4 0  9996","EPHEMERIS_TYPE":"0","TLE_LINE2":"2 52310  53.2173 142.7545 0001909  52.9684 307.1482 15.08852492 32469","PERIOD":"95.437","MEAN_ELEMENT_THEORY":"SGP4","REF_FRAME":"TEME","EPOCH":"2022-11-10T20:23:36.512160","MEAN_ANOMALY":"307.1482","BSTAR":"-0.00004943100000","OBJECT_TYPE":"PAYLOAD","FILE":"3650843","REV_AT_EPOCH":"3246","CLASSIFICATION_TYPE":"U","LAUNCH_DATE":"2022-04-21","OBJECT_NAME":"STARLINK-3688","MEAN_MOTION_DDOT":"0.0000000000000","GP_ID":"217370845","MEAN_MOTION_DOT":"-0.00001075","OBJECT_ID":"2022-041BB","SITE":"AFETR","RCS_SIZE":"LARGE","MEAN_MOTION":"15.08852492","COUNTRY_CODE":"US","ARG_OF_PERICENTER":"52.9684","APOAPSIS":"541.028","ECCENTRICITY":"0.00019090"},{"TLE_LINE2":"2 52311  53.2175 142.7255 0002125  35.9548 324.1587 15.08833644 32464","EPHEMERIS_TYPE":"0","INCLINATION":"53.2175","SEMIMAJOR_AXIS":"6917.900","CENTER_NAME":"EARTH","NORAD_CAT_ID":"52311","TLE_LINE1":"1 52311U 22041BC  22314.85245805 -.00001570  00000-0 -80575-4 0  9994","MEAN_ANOMALY":"324.1587","PERIOD":"95.438","EPOCH":"2022-11-10T20:27:32.375520","MEAN_ELEMENT_THEORY":"SGP4","REF_FRAME":"TEME","RA_OF_ASC_NODE":"142.7255","TIME_SYSTEM":"UTC","ELEMENT_SET_NO":"999","PERIAPSIS":"538.295","DECAY_DATE":null,"MEAN_MOTION":"15.08833644","APOAPSIS":"541.235","ECCENTRICITY":"0.00021250","COUNTRY_CODE":"US","ARG_OF_PERICENTER":"35.9548","REV_AT_EPOCH":"3246","CLASSIFICATION_TYPE":"U","FILE":"3650843","BSTAR":"-0.00008057500000","OBJECT_TYPE":"PAYLOAD","RCS_SIZE":"LARGE","SITE":"AFETR","GP_ID":"217371592","MEAN_MOTION_DOT":"-0.00001570","MEAN_MOTION_DDOT":"0.0000000000000","OBJECT_ID":"2022-041BC","LAUNCH_DATE":"2022-04-21","OBJECT_NAME":"STARLINK-3750"},{"DECAY_DATE":null,"ELEMENT_SET_NO":"999","TIME_SYSTEM":"UTC","PERIAPSIS":"538.246","RA_OF_ASC_NODE":"143.1988","PERIOD":"95.438","REF_FRAME":"TEME","MEAN_ELEMENT_THEORY":"SGP4","EPOCH":"2022-11-10T18:00:31.423680","MEAN_ANOMALY":"323.3096","EPHEMERIS_TYPE":"0","NORAD_CAT_ID":"52312","TLE_LINE1":"1 52312U 22041BD  22314.75036370 -.00001036  00000-0 -47013-4 0  9996","SEMIMAJOR_AXIS":"6917.899","INCLINATION":"53.2174","CENTER_NAME":"EARTH","TLE_LINE2":"2 52312  53.2174 143.1988 0002195  36.8046 323.3096 15.08833758 32453","GP_ID":"217372333","MEAN_MOTION_DDOT":"0.0000000000000","OBJECT_ID":"2022-041BD","MEAN_MOTION_DOT":"-0.00001036","OBJECT_NAME":"STARLINK-3752","LAUNCH_DATE":"2022-04-21","RCS_SIZE":"LARGE","SITE":"AFETR","FILE":"3650843","OBJECT_TYPE":"PAYLOAD","BSTAR":"-0.00004701300000","CLASSIFICATION_TYPE":"U","REV_AT_EPOCH":"3245","ARG_OF_PERICENTER":"36.8046","COUNTRY_CODE":"US","ECCENTRICITY":"0.00021950","APOAPSIS":"541.283","MEAN_MOTION":"15.08833758"},{"REF_FRAME":"TEME","PERIOD":"95.438","EPOCH":"2022-11-10T19:34:32.366496","MEAN_ELEMENT_THEORY":"SGP4","MEAN_ANOMALY":"310.1895","NORAD_CAT_ID":"52313","TLE_LINE1":"1 52313U 22041BE  22314.81565239 -.00001013  00000-0 -45538-4 0  9990","INCLINATION":"53.2187","SEMIMAJOR_AXIS":"6917.899","CENTER_NAME":"EARTH","EPHEMERIS_TYPE":"0","TLE_LINE2":"2 52313  53.2187 142.9049 0001825  49.9257 310.1895 15.08833825 32468","DECAY_DATE":null,"PERIAPSIS":"538.502","ELEMENT_SET_NO":"999","TIME_SYSTEM":"UTC","RA_OF_ASC_NODE":"142.9049","ARG_OF_PERICENTER":"49.9257","COUNTRY_CODE":"US","ECCENTRICITY":"0.00018250","APOAPSIS":"541.027","MEAN_MOTION":"15.08833825","OBJECT_NAME":"STARLINK-3749","LAUNCH_DATE":"2022-04-21","MEAN_MOTION_DOT":"-0.00001013","GP_ID":"217371095","MEAN_MOTION_DDOT":"0.0000000000000","OBJECT_ID":"2022-041BE","SITE":"AFETR","RCS_SIZE":"LARGE","OBJECT_TYPE":"PAYLOAD","BSTAR":"-0.00004553800000","FILE":"3650843","CLASSIFICATION_TYPE":"U","REV_AT_EPOCH":"3246"},{"MEAN_MOTION":"15.08811606","ARG_OF_PERICENTER":"29.6990","COUNTRY_CODE":"US","ECCENTRICITY":"0.00022910","APOAPSIS":"541.417","OBJECT_TYPE":"PAYLOAD","BSTAR":"0.00092900000000","FILE":"3650843","CLASSIFICATION_TYPE":"U","REV_AT_EPOCH":"3223","OBJECT_NAME":"STARLINK-3889","LAUNCH_DATE":"2022-04-29","MEAN_MOTION_DDOT":"0.0000000000000","GP_ID":"217371346","MEAN_MOTION_DOT":"0.00014517","OBJECT_ID":"2022-045A","SITE":"AFETR","RCS_SIZE":"LARGE","NORAD_CAT_ID":"52331","TLE_LINE1":"1 52331U 22045A   22314.80461466  .00014517  00000-0  92900-3 0  9995","INCLINATION":"53.2171","SEMIMAJOR_AXIS":"6917.967","CENTER_NAME":"EARTH","EPHEMERIS_TYPE":"0","TLE_LINE2":"2 52331  53.2171 262.9539 0002291  29.6990 330.4132 15.08811606 32232","PERIOD":"95.439","REF_FRAME":"TEME","EPOCH":"2022-11-10T19:18:38.706624","MEAN_ELEMENT_THEORY":"SGP4","MEAN_ANOMALY":"330.4132","RA_OF_ASC_NODE":"262.9539","DECAY_DATE":null,"PERIAPSIS":"538.247","ELEMENT_SET_NO":"999","TIME_SYSTEM":"UTC"},{"CLASSIFICATION_TYPE":"U","REV_AT_EPOCH":"3215","FILE":"3650424","OBJECT_TYPE":"PAYLOAD","BSTAR":"-0.00025045000000","RCS_SIZE":"LARGE","SITE":"AFETR","GP_ID":"217310309","OBJECT_ID":"2022-045B","MEAN_MOTION_DDOT":"0.0000000000000","MEAN_MOTION_DOT":"-0.00004271","OBJECT_NAME":"STARLINK-3831","LAUNCH_DATE":"2022-04-29","MEAN_MOTION":"15.08829613","ECCENTRICITY":"0.00025900","APOAPSIS":"541.569","ARG_OF_PERICENTER":"28.3522","COUNTRY_CODE":"US","RA_OF_ASC_NODE":"265.2747","ELEMENT_SET_NO":"999","TIME_SYSTEM":"UTC","PERIAPSIS":"537.985","DECAY_DATE":null,"TLE_LINE2":"2 52332  53.2189 265.2747 0002590  28.3522 331.7611 15.08829613 32152","EPHEMERIS_TYPE":"0","NORAD_CAT_ID":"52332","TLE_LINE1":"1 52332U 22045B   22314.28572886 -.00004271  00000-0 -25045-3 0  9991","CENTER_NAME":"EARTH","SEMIMAJOR_AXIS":"6917.912","INCLINATION":"53.2189","MEAN_ANOMALY":"331.7611","REF_FRAME":"TEME","PERIOD":"95.438","EPOCH":"2022-11-10T06:51:26.973504","MEAN_ELEMENT_THEORY":"SGP4"},{"SEMIMAJOR_AXIS":"6918.021","CENTER_NAME":"EARTH","INCLINATION":"53.2174","TLE_LINE1":"1 52333U 22045C   22314.87820824  .00001209  00000-0  94182-4 0  9990","NORAD_CAT_ID":"52333","EPHEMERIS_TYPE":"0","TLE_LINE2":"2 52333  53.2174 262.6161 0002382  27.6082 332.5036 15.08793922 32232","MEAN_ELEMENT_THEORY":"SGP4","PERIOD":"95.440","REF_FRAME":"TEME","EPOCH":"2022-11-10T21:04:37.191936","MEAN_ANOMALY":"332.5036","RA_OF_ASC_NODE":"262.6161","DECAY_DATE":null,"PERIAPSIS":"538.238","TIME_SYSTEM":"UTC","ELEMENT_SET_NO":"999","MEAN_MOTION":"15.08793922","COUNTRY_CODE":"US","ARG_OF_PERICENTER":"27.6082","APOAPSIS":"541.534","ECCENTRICITY":"0.00023820","BSTAR":"0.00009418200000","OBJECT_TYPE":"PAYLOAD","FILE":"3650843","REV_AT_EPOCH":"3223","CLASSIFICATION_TYPE":"U","LAUNCH_DATE":"2022-04-29","OBJECT_NAME":"STARLINK-3847","GP_ID":"217371835","OBJECT_ID":"2022-045C","MEAN_MOTION_DDOT":"0.0000000000000","MEAN_MOTION_DOT":"0.00001209","SITE":"AFETR","RCS_SIZE":"LARGE"}];
